{"type": "FeatureCollection", "features": [ {"type": "Feature", "properties": {"norad_id": 31931, "name": "FENGYUN 1C DEB", "group": "fengyun-1c-debris", "lat": 5.667850282054419, "lon": 125.32394799701036, "alt_km": 986.4870426664838, "timestamp": "2025-12-22T04:03:39.454484+00:00", "meta": {"OBJECT_NAME": "FENGYUN 1C DEB", "OBJECT_ID": "1999-025CMG", "EPOCH": "2025-12-21T14:37:55.062912", "MEAN_MOTION": 13.42629817, "ECCENTRICITY": 0.0422448, "INCLINATION": 97.8149, "RA_OF_ASC_NODE": 304.1076, "ARG_OF_PERICENTER": 246.5304, "MEAN_ANOMALY": 109.0901, "EPHEMERIS_TYPE": 0, "CLASSIFICATION_TYPE": "U", "NORAD_CAT_ID": 31931, "ELEMENT_SET_NO": 999, "REV_AT_EPOCH": 65341, "BSTAR": 0.00042874, "MEAN_MOTION_DOT": 3.81e-06, "MEAN_MOTION_DDOT": 0}, "tle": {"line1": "1 31931U 99025CMG 25355.60966508  .00000381  00000+0  42874-3 0  9991", "line2": "2 31931  97.8149 304.1076 0422448 246.5304 109.0901 13.42629817653418"}}, "geometry": {"type": "Point", "coordinates": [125.32394799701036, 5.667850282054419]}}, {"type": "Feature", "properties": {"norad_id": 31934, "name": "FENGYUN 1C DEB", "group": "fengyun-1c-debris", "lat": -74.50342981321973, "lon": 81.26909731107584, "alt_km": 546.0652044991893, "timestamp": "2025-12-22T04:03:39.454494+00:00", "meta": {"OBJECT_NAME": "FENGYUN 1C DEB", "OBJECT_ID": "1999-025CMK", "EPOCH": "2025-12-17T14:29:22.520832", "MEAN_MOTION": 15.0735698, "ECCENTRICITY": 0.00367266, "INCLINATION": 98.8801, "RA_OF_ASC_NODE": 41.6776, "ARG_OF_PERICENTER": 217.4543, "MEAN_ANOMALY": 142.4121, "EPHEMERIS_TYPE": 0, "CLASSIFICATION_TYPE": "U", "NORAD_CAT_ID": 31934, "ELEMENT_SET_NO": 999, "REV_AT_EPOCH": 60916, "BSTAR": 0.0026504952, "MEAN_MOTION_DOT": 0.00040819, "MEAN_MOTION_DDOT": 0}, "tle": {"line1": "1 31934U 99025CMK 25351.60373288  .00040819  00000+0  26505-2 0  9999", "line2": "2 31934  98.8801  41.6776 0036726 217.4543 142.4121 15.07356980609168"}}, "geometry": {"type": "Point", "coordinates": [81.26909731107584, -74.50342981321973]}}, {"type": "Feature", "properties": {"norad_id": 31937, "name": "FENGYUN 1C DEB", "group": "fengyun-1c-debris", "lat": 61.21335090705385, "lon": 69.8929575018881, "alt_km": 730.9898860289832, "timestamp": "2025-12-22T04:03:39.454505+00:00", "meta": {"OBJECT_NAME": "FENGYUN 1C DEB", "OBJECT_ID": "1999-025CMN", "EPOCH": "2025-12-06T23:52:27.149088", "MEAN_MOTION": 14.78022374, "ECCENTRICITY": 0.0162921, "INCLINATION": 99.2561, "RA_OF_ASC_NODE": 69.7316, "ARG_OF_PERICENTER": 315.3928, "MEAN_ANOMALY": 43.4262, "EPHEMERIS_TYPE": 0, "CLASSIFICATION_TYPE": "U", "NORAD_CAT_ID": 31937, "ELEMENT_SET_NO": 999, "REV_AT_EPOCH": 65984, "BSTAR": 0.0011794166, "MEAN_MOTION_DOT": 0.00010567, "MEAN_MOTION_DDOT": 0}, "tle": {"line1": "1 31937U 99025CMN 25340.99475867  .00010567  00000+0  11794-2 0  9999", "line2": "2 31937  99.2561  69.7316 0162921 315.3928  43.4262 14.78022374659842"}}, "geometry": {"type": "Point", "coordinates": [69.8929575018881, 61.21335090705385]}}, {"type": "Feature", "properties": {"norad_id": 31938, "name": "FENGYUN 1C DEB", "group": "fengyun-1c-debris", "lat": -62.14449068068719, "lon": -168.39513902745483, "alt_km": 681.2529839734152, "timestamp": "2025-12-22T04:03:39.454515+00:00", "meta": {"OBJECT_NAME": "FENGYUN 1C DEB", "OBJECT_ID": "1999-025CMP", "EPOCH": "2025-12-21T01:17:17.202048", "MEAN_MOTION": 14.95700476, "ECCENTRICITY": 0.01526882, "INCLINATION": 98.9282, "RA_OF_ASC_NODE": 27.6402, "ARG_OF_PERICENTER": 39.5799, "MEAN_ANOMALY": 321.6449, "EPHEMERIS_TYPE": 0, "CLASSIFICATION_TYPE": "U", "NORAD_CAT_ID": 31938, "ELEMENT_SET_NO": 999, "REV_AT_EPOCH": 99260, "BSTAR": 0.00030797902, "MEAN_MOTION_DOT": 4.25e-05, "MEAN_MOTION_DDOT": 0}, "tle": {"line1": "1 31938U 99025CMP 25355.05367132  .00004250  00000+0  30798-3 0  9996", "line2": "2 31938  98.9282  27.6402 0152688  39.5799 321.6449 14.95700476992605"}}, "geometry": {"type": "Point", "coordinates": [-168.39513902745483, -62.14449068068719]}}, {"type": "Feature", "properties": {"norad_id": 31944, "name": "FENGYUN 1C DEB", "group": "fengyun-1c-debris", "lat": 29.985264179105908, "lon": -30.71231359140884, "alt_km": 960.0975720165479, "timestamp": "2025-12-22T04:03:39.454526+00:00", "meta": {"OBJECT_NAME": "FENGYUN 1C DEB", "OBJECT_ID": "1999-025CMV", "EPOCH": "2025-12-12T04:22:40.814976", "MEAN_MOTION": 14.11787529, "ECCENTRICITY": 0.0151811, "INCLINATION": 99.2035, "RA_OF_ASC_NODE": 133.6743, "ARG_OF_PERICENTER": 5.8705, "MEAN_ANOMALY": 173.5719, "EPHEMERIS_TYPE": 0, "CLASSIFICATION_TYPE": "U", "NORAD_CAT_ID": 31944, "ELEMENT_SET_NO": 999, "REV_AT_EPOCH": 62902, "BSTAR": 0.0007470391, "MEAN_MOTION_DOT": 1.471e-05, "MEAN_MOTION_DDOT": 0}, "tle": {"line1": "1 31944U 99025CMV 25346.18241684  .00001471  00000+0  74704-3 0  9997", "line2": "2 31944  99.2035 133.6743 0151811   5.8705 173.5719 14.11787529629027"}}, "geometry": {"type": "Point", "coordinates": [-30.71231359140884, 29.985264179105908]}}, {"type": "Feature", "properties": {"norad_id": 31945, "name": "FENGYUN 1C DEB", "group": "fengyun-1c-debris", "lat": 78.14545607922501, "lon": 23.916982031095916, "alt_km": 859.3890964820912, "timestamp": "2025-12-22T04:03:39.454537+00:00", "meta": {"OBJECT_NAME": "FENGYUN 1C DEB", "OBJECT_ID": "1999-025CMW", "EPOCH": "2025-12-21T04:00:39.791808", "MEAN_MOTION": 14.20849644, "ECCENTRICITY": 0.00615069, "INCLINATION": 98.9584, "RA_OF_ASC_NODE": 71.6209, "ARG_OF_PERICENTER": 262.904, "MEAN_ANOMALY": 96.514, "EPHEMERIS_TYPE": 0, "CLASSIFICATION_TYPE": "U", "NORAD_CAT_ID": 31945, "ELEMENT_SET_NO": 999, "REV_AT_EPOCH": 95315, "BSTAR": 0.0010233525, "MEAN_MOTION_DOT": 2.209e-05, "MEAN_MOTION_DDOT": 0}, "tle": {"line1": "1 31945U 99025CMW 25355.16712722  .00002209  00000+0  10234-2 0  9999", "line2": "2 31945  98.9584  71.6209 0061506 262.9040  96.5140 14.20849644953153"}}, "geometry": {"type": "Point", "coordinates": [23.916982031095916, 78.14545607922501]}}, {"type": "Feature", "properties": {"norad_id": 31946, "name": "FENGYUN 1C DEB", "group": "fengyun-1c-debris", "lat": 10.635217236327138, "lon": -121.92375020532151, "alt_km": 887.7637879323465, "timestamp": "2025-12-22T04:03:39.454547+00:00", "meta": {"OBJECT_NAME": "FENGYUN 1C DEB", "OBJECT_ID": "1999-025CMX", "EPOCH": "2025-12-16T09:57:01.808928", "MEAN_MOTION": 14.1645311, "ECCENTRICITY": 0.0081922, "INCLINATION": 98.8983, "RA_OF_ASC_NODE": 50.6388, "ARG_OF_PERICENTER": 39.168, "MEAN_ANOMALY": 321.5384, "EPHEMERIS_TYPE": 0, "CLASSIFICATION_TYPE": "U", "NORAD_CAT_ID": 31946, "ELEMENT_SET_NO": 999, "REV_AT_EPOCH": 64060, "BSTAR": 0.00095009, "MEAN_MOTION_DOT": 1.908e-05, "MEAN_MOTION_DDOT": 0}, "tle": {"line1": "1 31946U 99025CMX 25350.41460427  .00001908  00000+0  95009-3 0  9994", "line2": "2 31946  98.8983  50.6388 0081922  39.1680 321.5384 14.16453110640607"}}, "geometry": {"type": "Point", "coordinates": [-121.92375020532151, 10.635217236327138]}}, {"type": "Feature", "properties": {"norad_id": 31948, "name": "FENGYUN 1C DEB", "group": "fengyun-1c-debris", "lat": -52.7893396347894, "lon": -135.28151451063647, "alt_km": 812.8481142751443, "timestamp": "2025-12-22T04:03:39.454557+00:00", "meta": {"OBJECT_NAME": "FENGYUN 1C DEB", "OBJECT_ID": "1999-025CMZ", "EPOCH": "2025-12-18T10:10:15.056832", "MEAN_MOTION": 14.28329763, "ECCENTRICITY": 0.00234205, "INCLINATION": 99.3923, "RA_OF_ASC_NODE": 53.282, "ARG_OF_PERICENTER": 5.6805, "MEAN_ANOMALY": 59.9549, "EPHEMERIS_TYPE": 0, "CLASSIFICATION_TYPE": "U", "NORAD_CAT_ID": 31948, "ELEMENT_SET_NO": 999, "REV_AT_EPOCH": 95109, "BSTAR": 0.0011732562, "MEAN_MOTION_DOT": 2.889e-05, "MEAN_MOTION_DDOT": 0}, "tle": {"line1": "1 31948U 99025CMZ 25352.42378538  .00002889  00000+0  11733-2 0  9990", "line2": "2 31948  99.3923  53.2820 0023420   5.6805  59.9549 14.28329763951097"}}, "geometry": {"type": "Point", "coordinates": [-135.28151451063647, -52.7893396347894]}}, {"type": "Feature", "properties": {"norad_id": 31949, "name": "FENGYUN 1C DEB", "group": "fengyun-1c-debris", "lat": 26.773513000000694, "lon": -23.051000056466894, "alt_km": 918.567939246178, "timestamp": "2025-12-22T04:03:39.454567+00:00", "meta": {"OBJECT_NAME": "FENGYUN 1C DEB", "OBJECT_ID": "1999-025CNA", "EPOCH": "2025-11-23T05:03:27.897984", "MEAN_MOTION": 14.1687356, "ECCENTRICITY": 0.01252295, "INCLINATION": 98.5419, "RA_OF_ASC_NODE": 313.4803, "ARG_OF_PERICENTER": 269.0533, "MEAN_ANOMALY": 89.6292, "EPHEMERIS_TYPE": 0, "CLASSIFICATION_TYPE": "U", "NORAD_CAT_ID": 31949, "ELEMENT_SET_NO": 999, "REV_AT_EPOCH": 95228, "BSTAR": 0.00041514195, "MEAN_MOTION_DOT": 8.56e-06, "MEAN_MOTION_DDOT": 0}, "tle": {"line1": "1 31949U 99025CNA 25327.21073956  .00000856  00000+0  41514-3 0  9999", "line2": "2 31949  98.5419 313.4803 0125229 269.0533  89.6292 14.16873560952288"}}, "geometry": {"type": "Point", "coordinates": [-23.051000056466894, 26.773513000000694]}}, {"type": "Feature", "properties": {"norad_id": 31952, "name": "FENGYUN 1C DEB", "group": "fengyun-1c-debris", "lat": -11.67011653561899, "lon": 115.78003699139423, "alt_km": 709.7802752161597, "timestamp": "2025-12-22T04:03:39.454577+00:00", "meta": {"OBJECT_NAME": "FENGYUN 1C DEB", "OBJECT_ID": "1999-025CND", "EPOCH": "2025-12-21T06:38:16.029024", "MEAN_MOTION": 14.53528655, "ECCENTRICITY": 0.0114099, "INCLINATION": 98.9556, "RA_OF_ASC_NODE": 112.9598, "ARG_OF_PERICENTER": 266.5142, "MEAN_ANOMALY": 92.2996, "EPHEMERIS_TYPE": 0, "CLASSIFICATION_TYPE": "U", "NORAD_CAT_ID": 31952, "ELEMENT_SET_NO": 999, "REV_AT_EPOCH": 97333, "BSTAR": 0.00040334, "MEAN_MOTION_DOT": 1.775e-05, "MEAN_MOTION_DDOT": 0}, "tle": {"line1": "1 31952U 99025CND 25355.27657441  .00001775  00000+0  40334-3 0  9997", "line2": "2 31952  98.9556 112.9598 0114099 266.5142  92.2996 14.53528655973335"}}, "geometry": {"type": "Point", "coordinates": [115.78003699139423, -11.67011653561899]}}]}